ONEWEB-0233             
1 48795U 21045AE  25196.38909312 -.00000054  00000+0 -17736-3 0  9990
2 48795  87.9077 326.3991 0002228  93.0734 267.0652 13.15548978200018
ONEWEB-0190             
1 48796U 21045AF  25196.37654827  .00000060  00000+0  12616-3 0  9995
2 48796  87.9081 326.3662 0002730  94.9567 265.1875 13.15549812200082
ONEWEB-0236             
1 48797U 21045AG  25196.39398779 -.00000069  00000+0 -21811-3 0  9997
2 48797  87.9082 326.3712 0001990  94.9356 265.2002 13.15548729199977
ONEWEB-0248             
1 48798U 21045AH  25196.63484363  .00000033  00000+0  53286-4 0  9991
2 48798  87.9072 326.2794 0002382  84.9161 275.2241 13.15549489200169
ONEWEB-0225             
1 48799U 21045AJ  25196.35279972  .00000304  00000+0  77247-3 0  9992
2 48799  87.9078 326.3665 0002586  94.7596 265.3830 13.15548794200130
ONEWEB-0215             
1 48800U 21045AK  25196.62690536 -.00000037  00000+0 -13277-3 0  9996
2 48800  87.9070 326.2634 0002592  89.6867 270.4561 13.15550627200047
ONEWEB-0216             
1 48801U 21045AL  25196.63640788  .00000048  00000+0  93029-4 0  9996
2 48801  87.9072 326.3075 0002043 103.9353 256.2005 13.15549307200050
ONEWEB-0239             
1 48802U 21045AM  25196.64116161  .00000088  00000+0  19851-3 0  9995
2 48802  87.9082 326.3170 0002512  82.6321 277.5094 13.15550114200093
